{
  "type": "FeatureCollection",
  "features": [
    {
      "type": "Feature",
      "properties": {
        "norad_id": 34874,
        "name": "COSMOS 2251 DEB",
        "group": "cosmos-2251-debris",
        "lat": 57.11444793155567,
        "lon": -122.26106548318675,
        "alt_km": 728.664481587014,
        "timestamp": "2025-12-07T03:52:32.897927+00:00",
        "meta_object_name": "COSMOS 2251 DEB",
        "meta_object_id": "1993-036ACM",
        "meta_epoch": "2025-12-06T14:01:46.333056",
        "meta_mean_motion": 14.36261924,
        "meta_eccentricity": 0.00513355,
        "meta_inclination": 74.0399,
        "meta_ra_of_asc_node": 85.0682,
        "meta_arg_of_pericenter": 112.3179,
        "meta_mean_anomaly": 264.8496,
        "meta_ephemeris_type": 0,
        "meta_classification_type": "U",
        "meta_norad_cat_id": 34874,
        "meta_element_set_no": 999,
        "meta_rev_at_epoch": 86956,
        "meta_bstar": 0.0017055916,
        "meta_mean_motion_dot": 5.035e-05,
        "meta_mean_motion_ddot": 0,
        "tle_line1": "1 34874U 93036ACM 25340.58456404  .00005035  00000+0  17056-2 0  9990",
        "tle_line2": "2 34874  74.0399  85.0682 0051335 112.3179 264.8496 14.36261924869561"
      },
      "geometry": {
        "type": "Point",
        "coordinates": [
          -122.26106548318675,
          57.11444793155567
        ]
      }
    },
    {
      "type": "Feature",
      "properties": {
        "norad_id": 34875,
        "name": "COSMOS 2251 DEB",
        "group": "cosmos-2251-debris",
        "lat": -71.98148735038356,
        "lon": 107.07154432016638,
        "alt_km": 725.1493253698527,
        "timestamp": "2025-12-07T03:52:32.897937+00:00",
        "meta_object_name": "COSMOS 2251 DEB",
        "meta_object_id": "1993-036ACN",
        "meta_epoch": "2025-12-06T07:31:31.412064",
        "meta_mean_motion": 14.4889239,
        "meta_eccentricity": 0.00160203,
        "meta_inclination": 74.0433,
        "meta_ra_of_asc_node": 170.2542,
        "meta_arg_of_pericenter": 294.3137,
        "meta_mean_anomaly": 243.1704,
        "meta_ephemeris_type": 0,
        "meta_classification_type": "U",
        "meta_norad_cat_id": 34875,
        "meta_element_set_no": 999,
        "meta_rev_at_epoch": 87662,
        "meta_bstar": 0.00082171451,
        "meta_mean_motion_dot": 3.088e-05,
        "meta_mean_motion_ddot": 0,
        "tle_line1": "1 34875U 93036ACN 25340.31355801  .00003088  00000+0  82171-3 0  9998",
        "tle_line2": "2 34875  74.0433 170.2542 0016020 294.3137 243.1704 14.48892390876627"
      },
      "geometry": {
        "type": "Point",
        "coordinates": [
          107.07154432016638,
          -71.98148735038356
        ]
      }
    },
    {
      "type": "Feature",
      "properties": {
        "norad_id": 34878,
        "name": "COSMOS 2251 DEB",
        "group": "cosmos-2251-debris",
        "lat": -15.373104350807234,
        "lon": 51.63714021909554,
        "alt_km": 909.7766837496447,
        "timestamp": "2025-12-07T03:52:32.897948+00:00",
        "meta_object_name": "COSMOS 2251 DEB",
        "meta_object_id": "1993-036ACR",
        "meta_epoch": "2025-12-06T11:56:28.873824",
        "meta_mean_motion": 13.44180688,
        "meta_eccentricity": 0.04352424,
        "meta_inclination": 73.9646,
        "meta_ra_of_asc_node": 57.2251,
        "meta_arg_of_pericenter": 41.977,
        "meta_mean_anomaly": 334.577,
        "meta_ephemeris_type": 0,
        "meta_classification_type": "U",
        "meta_norad_cat_id": 34878,
        "meta_element_set_no": 999,
        "meta_rev_at_epoch": 81189,
        "meta_bstar": 0.00087629621,
        "meta_mean_motion_dot": 8.79e-06,
        "meta_mean_motion_ddot": 0,
        "tle_line1": "1 34878U 93036ACR 25340.49755641  .00000879  00000+0  87630-3 0  9996",
        "tle_line2": "2 34878  73.9646  57.2251 0435242  41.9770 334.5770 13.44180688811896"
      },
      "geometry": {
        "type": "Point",
        "coordinates": [
          51.63714021909554,
          -15.373104350807234
        ]
      }
    },
    {
      "type": "Feature",
      "properties": {
        "norad_id": 34882,
        "name": "COSMOS 2251 DEB",
        "group": "cosmos-2251-debris",
        "lat": -31.83969852434992,
        "lon": -133.97488835961636,
        "alt_km": 647.5467657975187,
        "timestamp": "2025-12-07T03:52:32.897959+00:00",
        "meta_object_name": "COSMOS 2251 DEB",
        "meta_object_id": "1993-036ACV",
        "meta_epoch": "2025-12-04T16:53:13.957728",
        "meta_mean_motion": 14.61571814,
        "meta_eccentricity": 0.00824762,
        "meta_inclination": 74.0468,
        "meta_ra_of_asc_node": 240.9544,
        "meta_arg_of_pericenter": 9.9257,
        "meta_mean_anomaly": 350.3513,
        "meta_ephemeris_type": 0,
        "meta_classification_type": "U",
        "meta_norad_cat_id": 34882,
        "meta_element_set_no": 999,
        "meta_rev_at_epoch": 88407,
        "meta_bstar": 0.0003857555,
        "meta_mean_motion_dot": 1.979e-05,
        "meta_mean_motion_ddot": 0,
        "tle_line1": "1 34882U 93036ACV 25338.70363377  .00001979  00000+0  38576-3 0  9990",
        "tle_line2": "2 34882  74.0468 240.9544 0082476   9.9257 350.3513 14.61571814884078"
      },
      "geometry": {
        "type": "Point",
        "coordinates": [
          -133.97488835961636,
          -31.83969852434992
        ]
      }
    },
    {
      "type": "Feature",
      "properties": {
        "norad_id": 34883,
        "name": "COSMOS 2251 DEB",
        "group": "cosmos-2251-debris",
        "lat": -38.19016105215652,
        "lon": -94.01454577920539,
        "alt_km": 675.4075682215298,
        "timestamp": "2025-12-07T03:52:32.897970+00:00",
        "meta_object_name": "COSMOS 2251 DEB",
        "meta_object_id": "1993-036ACW",
        "meta_epoch": "2025-12-06T05:20:55.478976",
        "meta_mean_motion": 14.51130245,
        "meta_eccentricity": 0.00948071,
        "meta_inclination": 74.2015,
        "meta_ra_of_asc_node": 74.8641,
        "meta_arg_of_pericenter": 261.0481,
        "meta_mean_anomaly": 97.994,
        "meta_ephemeris_type": 0,
        "meta_classification_type": "U",
        "meta_norad_cat_id": 34883,
        "meta_element_set_no": 999,
        "meta_rev_at_epoch": 86345,
        "meta_bstar": 0.0073550576,
        "meta_mean_motion_dot": 0.0003103,
        "meta_mean_motion_ddot": 0,
        "tle_line1": "1 34883U 93036ACW 25340.22286434  .00031030  00000+0  73551-2 0  9991",
        "tle_line2": "2 34883  74.2015  74.8641 0094807 261.0481  97.9940 14.51130245863457"
      },
      "geometry": {
        "type": "Point",
        "coordinates": [
          -94.01454577920539,
          -38.19016105215652
        ]
      }
    },
    {
      "type": "Feature",
      "properties": {
        "norad_id": 34884,
        "name": "COSMOS 2251 DEB",
        "group": "cosmos-2251-debris",
        "lat": 70.3070019341652,
        "lon": -165.28517886333535,
        "alt_km": 590.1582472198097,
        "timestamp": "2025-12-07T03:52:32.897980+00:00",
        "meta_object_name": "COSMOS 2251 DEB",
        "meta_object_id": "1993-036ACX",
        "meta_epoch": "2025-12-06T06:35:25.859040",
        "meta_mean_motion": 14.89580071,
        "meta_eccentricity": 0.00025226,
        "meta_inclination": 74.0182,
        "meta_ra_of_asc_node": 69.6903,
        "meta_arg_of_pericenter": 121.8602,
        "meta_mean_anomaly": 265.7279,
        "meta_ephemeris_type": 0,
        "meta_classification_type": "U",
        "meta_norad_cat_id": 34884,
        "meta_element_set_no": 999,
        "meta_rev_at_epoch": 87709,
        "meta_bstar": 0.0047868064,
        "meta_mean_motion_dot": 0.00045968,
        "meta_mean_motion_ddot": 0,
        "tle_line1": "1 34884U 93036ACX 25340.27460485  .00045968  00000+0  47868-2 0  9994",
        "tle_line2": "2 34884  74.0182  69.6903 0002522 121.8602 265.7279 14.89580071877097"
      },
      "geometry": {
        "type": "Point",
        "coordinates": [
          -165.28517886333535,
          70.3070019341652
        ]
      }
    },
    {
      "type": "Feature",
      "properties": {
        "norad_id": 34885,
        "name": "COSMOS 2251 DEB",
        "group": "cosmos-2251-debris",
        "lat": 35.86256248312356,
        "lon": -154.52822978777016,
        "alt_km": 723.2920299767184,
        "timestamp": "2025-12-07T03:52:32.897991+00:00",
        "meta_object_name": "COSMOS 2251 DEB",
        "meta_object_id": "1993-036ACY",
        "meta_epoch": "2025-12-06T00:06:31.619232",
        "meta_mean_motion": 14.51450444,
        "meta_eccentricity": 0.00153702,
        "meta_inclination": 74.0307,
        "meta_ra_of_asc_node": 195.7026,
        "meta_arg_of_pericenter": 281.3994,
        "meta_mean_anomaly": 193.1527,
        "meta_ephemeris_type": 0,
        "meta_classification_type": "U",
        "meta_norad_cat_id": 34885,
        "meta_element_set_no": 999,
        "meta_rev_at_epoch": 87381,
        "meta_bstar": 0.0011296703,
        "meta_mean_motion_dot": 4.493e-05,
        "meta_mean_motion_ddot": 0,
        "tle_line1": "1 34885U 93036ACY 25340.00453263  .00004493  00000+0  11297-2 0  9997",
        "tle_line2": "2 34885  74.0307 195.7026 0015370 281.3994 193.1527 14.51450444873810"
      },
      "geometry": {
        "type": "Point",
        "coordinates": [
          -154.52822978777016,
          35.86256248312356
        ]
      }
    }
  ]
}